{
  "type": "FeatureCollection",
  "features": [
    {
      "type": "Feature",
      "properties": {
        "norad_id": 34022,
        "name": "COSMOS 2251 DEB",
        "group": "cosmos-2251-debris",
        "lat": -51.02538527168522,
        "lon": -131.09681492015054,
        "alt_km": 752.1061070625601,
        "timestamp": "2025-12-24T05:51:20.002935+00:00",
        "meta_object_name": "COSMOS 2251 DEB",
        "meta_object_id": "1993-036HH",
        "meta_epoch": "2025-12-23T10:54:23.717088",
        "meta_mean_motion": 14.38977964,
        "meta_eccentricity": 0.0023032,
        "meta_inclination": 74.0538,
        "meta_ra_of_asc_node": 251.0526,
        "meta_arg_of_pericenter": 314.3113,
        "meta_mean_anomaly": 223.4132,
        "meta_ephemeris_type": 0,
        "meta_classification_type": "U",
        "meta_norad_cat_id": 34022,
        "meta_element_set_no": 999,
        "meta_rev_at_epoch": 88349,
        "meta_bstar": 0.00018928897,
        "meta_mean_motion_dot": 5.59e-06,
        "meta_mean_motion_ddot": 0,
        "tle_line1": "1 34022U 93036HH  25357.45444117  .00000559  00000+0  18929-3 0  9994",
        "tle_line2": "2 34022  74.0538 251.0526 0023032 314.3113 223.4132 14.38977964883494"
      },
      "geometry": {
        "type": "Point",
        "coordinates": [
          -131.09681492015054,
          -51.02538527168522
        ]
      }
    },
    {
      "type": "Feature",
      "properties": {
        "norad_id": 34023,
        "name": "COSMOS 2251 DEB",
        "group": "cosmos-2251-debris",
        "lat": -63.28625820303121,
        "lon": -164.24440323335875,
        "alt_km": 752.0805585018034,
        "timestamp": "2025-12-24T05:51:20.002945+00:00",
        "meta_object_name": "COSMOS 2251 DEB",
        "meta_object_id": "1993-036HJ",
        "meta_epoch": "2025-12-23T02:23:26.644416",
        "meta_mean_motion": 14.40580637,
        "meta_eccentricity": 0.00188454,
        "meta_inclination": 74.0241,
        "meta_ra_of_asc_node": 232.571,
        "meta_arg_of_pericenter": 326.7296,
        "meta_mean_anomaly": 152.7209,
        "meta_ephemeris_type": 0,
        "meta_classification_type": "U",
        "meta_norad_cat_id": 34023,
        "meta_element_set_no": 999,
        "meta_rev_at_epoch": 88363,
        "meta_bstar": 0.0002558496,
        "meta_mean_motion_dot": 7.9e-06,
        "meta_mean_motion_ddot": 0,
        "tle_line1": "1 34023U 93036HJ  25357.09961394  .00000790  00000+0  25585-3 0  9999",
        "tle_line2": "2 34023  74.0241 232.5710 0018845 326.7296 152.7209 14.40580637883635"
      },
      "geometry": {
        "type": "Point",
        "coordinates": [
          -164.24440323335875,
          -63.28625820303121
        ]
      }
    },
    {
      "type": "Feature",
      "properties": {
        "norad_id": 34024,
        "name": "COSMOS 2251 DEB",
        "group": "cosmos-2251-debris",
        "lat": 73.8602111874599,
        "lon": 16.187643423974336,
        "alt_km": 770.1039117175023,
        "timestamp": "2025-12-24T05:51:20.002955+00:00",
        "meta_object_name": "COSMOS 2251 DEB",
        "meta_object_id": "1993-036HK",
        "meta_epoch": "2025-12-23T23:04:42.657312",
        "meta_mean_motion": 14.35408203,
        "meta_eccentricity": 0.00215253,
        "meta_inclination": 74.047,
        "meta_ra_of_asc_node": 295.425,
        "meta_arg_of_pericenter": 343.7425,
        "meta_mean_anomaly": 85.0214,
        "meta_ephemeris_type": 0,
        "meta_classification_type": "U",
        "meta_norad_cat_id": 34024,
        "meta_element_set_no": 999,
        "meta_rev_at_epoch": 88185,
        "meta_bstar": 0.0001856404,
        "meta_mean_motion_dot": 5.08e-06,
        "meta_mean_motion_ddot": 0,
        "tle_line1": "1 34024U 93036HK  25357.96160483  .00000508  00000+0  18564-3 0  9992",
        "tle_line2": "2 34024  74.0470 295.4250 0021525 343.7425  85.0214 14.35408203881857"
      },
      "geometry": {
        "type": "Point",
        "coordinates": [
          16.187643423974336,
          73.8602111874599
        ]
      }
    },
    {
      "type": "Feature",
      "properties": {
        "norad_id": 34026,
        "name": "COSMOS 2251 DEB",
        "group": "cosmos-2251-debris",
        "lat": -40.6550039244575,
        "lon": -56.33381724887953,
        "alt_km": 1186.7367860791337,
        "timestamp": "2025-12-24T05:51:20.002965+00:00",
        "meta_object_name": "COSMOS 2251 DEB",
        "meta_object_id": "1993-036HM",
        "meta_epoch": "2025-12-23T23:20:50.343360",
        "meta_mean_motion": 13.65321922,
        "meta_eccentricity": 0.03496578,
        "meta_inclination": 73.7667,
        "meta_ra_of_asc_node": 318.6056,
        "meta_arg_of_pericenter": 186.8963,
        "meta_mean_anomaly": 234.9942,
        "meta_ephemeris_type": 0,
        "meta_classification_type": "U",
        "meta_norad_cat_id": 34026,
        "meta_element_set_no": 999,
        "meta_rev_at_epoch": 83685,
        "meta_bstar": 0.00041680513,
        "meta_mean_motion_dot": 4.92e-06,
        "meta_mean_motion_ddot": 0,
        "tle_line1": "1 34026U 93036HM  25357.97280490  .00000492  00000+0  41681-3 0  9994",
        "tle_line2": "2 34026  73.7667 318.6056 0349657 186.8963 234.9942 13.65321922836854"
      },
      "geometry": {
        "type": "Point",
        "coordinates": [
          -56.33381724887953,
          -40.6550039244575
        ]
      }
    },
    {
      "type": "Feature",
      "properties": {
        "norad_id": 34028,
        "name": "COSMOS 2251 DEB",
        "group": "cosmos-2251-debris",
        "lat": -70.38256268250544,
        "lon": -84.59403703465382,
        "alt_km": 1599.022906249511,
        "timestamp": "2025-12-24T05:51:20.002975+00:00",
        "meta_object_name": "COSMOS 2251 DEB",
        "meta_object_id": "1993-036HP",
        "meta_epoch": "2025-12-23T09:14:23.167968",
        "meta_mean_motion": 13.20631755,
        "meta_eccentricity": 0.05434871,
        "meta_inclination": 73.8837,
        "meta_ra_of_asc_node": 330.9297,
        "meta_arg_of_pericenter": 106.9461,
        "meta_mean_anomaly": 51.5126,
        "meta_ephemeris_type": 0,
        "meta_classification_type": "U",
        "meta_norad_cat_id": 34028,
        "meta_element_set_no": 999,
        "meta_rev_at_epoch": 81148,
        "meta_bstar": 0.00042853102,
        "meta_mean_motion_dot": 3.62e-06,
        "meta_mean_motion_ddot": 0,
        "tle_line1": "1 34028U 93036HP  25357.38499037  .00000362  00000+0  42853-3 0  9998",
        "tle_line2": "2 34028  73.8837 330.9297 0543487 106.9461  51.5126 13.20631755811481"
      },
      "geometry": {
        "type": "Point",
        "coordinates": [
          -84.59403703465382,
          -70.38256268250544
        ]
      }
    },
    {
      "type": "Feature",
      "properties": {
        "norad_id": 34031,
        "name": "COSMOS 2251 DEB",
        "group": "cosmos-2251-debris",
        "lat": -20.849903645218024,
        "lon": -59.99691633184175,
        "alt_km": 684.9304915606917,
        "timestamp": "2025-12-24T05:51:20.002985+00:00",
        "meta_object_name": "COSMOS 2251 DEB",
        "meta_object_id": "1993-036HS",
        "meta_epoch": "2025-12-23T14:11:58.426080",
        "meta_mean_motion": 14.59805126,
        "meta_eccentricity": 0.00228627,
        "meta_inclination": 74.0132,
        "meta_ra_of_asc_node": 114.9802,
        "meta_arg_of_pericenter": 234.8152,
        "meta_mean_anomaly": 140.1341,
        "meta_ephemeris_type": 0,
        "meta_classification_type": "U",
        "meta_norad_cat_id": 34031,
        "meta_element_set_no": 999,
        "meta_rev_at_epoch": 88724,
        "meta_bstar": 0.0013106739,
        "meta_mean_motion_dot": 6.262e-05,
        "meta_mean_motion_ddot": 0,
        "tle_line1": "1 34031U 93036HS  25357.59164845  .00006262  00000+0  13107-2 0  9995",
        "tle_line2": "2 34031  74.0132 114.9802 0022862 234.8152 140.1341 14.59805126887244"
      },
      "geometry": {
        "type": "Point",
        "coordinates": [
          -59.99691633184175,
          -20.849903645218024
        ]
      }
    },
    {
      "type": "Feature",
      "properties": {
        "norad_id": 34035,
        "name": "COSMOS 2251 DEB",
        "group": "cosmos-2251-debris",
        "lat": 42.81579865733109,
        "lon": -17.148590969000907,
        "alt_km": 708.2966214657481,
        "timestamp": "2025-12-24T05:51:20.002995+00:00",
        "meta_object_name": "COSMOS 2251 DEB",
        "meta_object_id": "1993-036HW",
        "meta_epoch": "2025-12-23T16:40:35.337216",
        "meta_mean_motion": 14.52076558,
        "meta_eccentricity": 0.00452591,
        "meta_inclination": 74.0663,
        "meta_ra_of_asc_node": 328.5352,
        "meta_arg_of_pericenter": 327.9561,
        "meta_mean_anomaly": 87.2034,
        "meta_ephemeris_type": 0,
        "meta_classification_type": "U",
        "meta_norad_cat_id": 34035,
        "meta_element_set_no": 999,
        "meta_rev_at_epoch": 88125,
        "meta_bstar": 0.0018005078,
        "meta_mean_motion_dot": 7.363e-05,
        "meta_mean_motion_ddot": 0,
        "tle_line1": "1 34035U 93036HW  25357.69485344  .00007363  00000+0  18005-2 0  9995",
        "tle_line2": "2 34035  74.0663 328.5352 0045259 327.9561  87.2034 14.52076558881250"
      },
      "geometry": {
        "type": "Point",
        "coordinates": [
          -17.148590969000907,
          42.81579865733109
        ]
      }
    }
  ]
}